COSMOS 2251             
1 22675U 93036A   26095.31083124  .00000108  00000+0  48666-4 0  9999
2 22675  74.0369 108.3743 0024528 168.2866 191.8861 14.33241488714001
COSMOS 2251 DEB         
1 33757U 93036E   26095.15651993  .00000085  00000+0  40675-4 0  9995
2 33757  74.0342 116.5632 0013633 108.2072 319.3140 14.32612417896204
COSMOS 2251 DEB         
1 33758U 93036F   26095.17874800  .00004444  00000+0  10926-2 0  9999
2 33758  74.0310   1.1989 0014730  44.7927 105.5929 14.52520419899515
COSMOS 2251 DEB         
1 33760U 93036H   26095.28999522  .00000339  00000+0  12587-3 0  9998
2 33760  74.0305  73.0468 0019872 150.8608 324.8689 14.35751260897540
COSMOS 2251 DEB         
1 33761U 93036J   26095.30704425  .00002002  00000+0  60522-3 0  9999
2 33761  74.0380  41.3888 0021346  99.9797  19.8727 14.42909761898723
COSMOS 2251 DEB         
1 33762U 93036K   26095.10443749  .00000118  00000+0  51798-4 0  9999
2 33762  74.0388 102.7682 0014568 144.9091 282.4655 14.33703773896723
COSMOS 2251 DEB         
1 33764U 93036M   26095.31157295  .00001418  00000+0  45936-3 0  9992
2 33764  74.0329  62.8960 0021871 355.0343 114.0997 14.39766641897915
COSMOS 2251 DEB         
1 33765U 93036N   26095.28762225  .00035137  00000+0  16058-2 0  9991
2 33765  74.0013 296.7658 0054840 357.1873   2.9007 15.19036472913378
COSMOS 2251 DEB         
1 33766U 93036P   26095.28982288  .00002380  00000+0  81901-3 0  9999
2 33766  74.1852 288.7051 0063357 100.3197 260.5108 14.35356584893747
COSMOS 2251 DEB         
1 33768U 93036R   26095.25733935  .00000374  00000+0  34754-3 0  9996
2 33768  74.0701  36.6239 0367511 169.5135 342.6722 13.58569332848371
COSMOS 2251 DEB         
1 33779U 93036U   26095.05478729  .00016388  00000+0  25193-2 0  9991
2 33779  74.0437 310.4075 0013166 313.2560 199.2205 14.73464402901950
COSMOS 2251 DEB         
1 33782U 93036X   26095.18918352  .00001753  00000+0  55495-3 0  9999
2 33782  74.0320  67.6733 0019016 112.8679 264.8234 14.40778005897609
COSMOS 2251 DEB         
1 33785U 93036AA  26095.24870384  .00015029  00000+0  23108-2 0  9997
2 33785  73.8664 196.8599 0017259 115.0009 272.6454 14.73432760901770
COSMOS 2251 DEB         
1 33789U 93036AE  26095.18870897  .00000486  00000+0  33464-3 0  9991
2 33789  74.0618 254.8338 0239885 343.6909 197.2769 13.88985382866703
COSMOS 2251 DEB         
1 33791U 93036AG  26095.26276404  .00002973  00000+0  87576-3 0  9993
2 33791  74.1752 188.4050 0029536 347.4453  43.4747 14.43809764896909
COSMOS 2251 DEB         
1 33792U 93036AH  26095.30565957  .00001064  00000+0  10352-2 0  9990
2 33792  73.9003 163.9323 0430275 208.8387 218.7298 13.46064995839703
