[{"OBJECT_NAME":"COSMOS 2251","OBJECT_ID":"1993-036A","EPOCH":"2026-04-05T07:27:35.819136","MEAN_MOTION":14.33241488,"ECCENTRICITY":0.00245282,"INCLINATION":74.0369,"RA_OF_ASC_NODE":108.3743,"ARG_OF_PERICENTER":168.2866,"MEAN_ANOMALY":191.8861,"EPHEMERIS_TYPE":0,"CLASSIFICATION_TYPE":"U","NORAD_CAT_ID":22675,"ELEMENT_SET_NO":999,"REV_AT_EPOCH":71400,"BSTAR":4.8665626e-5,"MEAN_MOTION_DOT":1.08e-6,"MEAN_MOTION_DDOT":0},{"OBJECT_NAME":"COSMOS 2251 DEB","OBJECT_ID":"1993-036E","EPOCH":"2026-04-05T03:45:23.321952","MEAN_MOTION":14.32612417,"ECCENTRICITY":0.00136331,"INCLINATION":74.0342,"RA_OF_ASC_NODE":116.5632,"ARG_OF_PERICENTER":108.2072,"MEAN_ANOMALY":319.314,"EPHEMERIS_TYPE":0,"CLASSIFICATION_TYPE":"U","NORAD_CAT_ID":33757,"ELEMENT_SET_NO":999,"REV_AT_EPOCH":89620,"BSTAR":4.0675159e-5,"MEAN_MOTION_DOT":8.5e-7,"MEAN_MOTION_DDOT":0},{"OBJECT_NAME":"COSMOS 2251 DEB","OBJECT_ID":"1993-036F","EPOCH":"2026-04-05T04:17:23.827200","MEAN_MOTION":14.52520419,"ECCENTRICITY":0.00147305,"INCLINATION":74.031,"RA_OF_ASC_NODE":1.1989,"ARG_OF_PERICENTER":44.7927,"MEAN_ANOMALY":105.5929,"EPHEMERIS_TYPE":0,"CLASSIFICATION_TYPE":"U","NORAD_CAT_ID":33758,"ELEMENT_SET_NO":999,"REV_AT_EPOCH":89951,"BSTAR":0.0010926404,"MEAN_MOTION_DOT":4.444e-5,"MEAN_MOTION_DDOT":0},{"OBJECT_NAME":"COSMOS 2251 DEB","OBJECT_ID":"1993-036H","EPOCH":"2026-04-05T06:57:35.587008","MEAN_MOTION":14.3575126,"ECCENTRICITY":0.00198728,"INCLINATION":74.0305,"RA_OF_ASC_NODE":73.0468,"ARG_OF_PERICENTER":150.8608,"MEAN_ANOMALY":324.8689,"EPHEMERIS_TYPE":0,"CLASSIFICATION_TYPE":"U","NORAD_CAT_ID":33760,"ELEMENT_SET_NO":999,"REV_AT_EPOCH":89754,"BSTAR":0.00012586591,"MEAN_MOTION_DOT":3.39e-6,"MEAN_MOTION_DDOT":0},{"OBJECT_NAME":"COSMOS 2251 DEB","OBJECT_ID":"1993-036J","EPOCH":"2026-04-05T07:22:08.623200","MEAN_MOTION":14.42909761,"ECCENTRICITY":0.0021346,"INCLINATION":74.038,"RA_OF_ASC_NODE":41.3888,"ARG_OF_PERICENTER":99.9797,"MEAN_ANOMALY":19.8727,"EPHEMERIS_TYPE":0,"CLASSIFICATION_TYPE":"U","NORAD_CAT_ID":33761,"ELEMENT_SET_NO":999,"REV_AT_EPOCH":89872,"BSTAR":0.00060521918,"MEAN_MOTION_DOT":2.002e-5,"MEAN_MOTION_DDOT":0},{"OBJECT_NAME":"COSMOS 2251 DEB","OBJECT_ID":"1993-036K","EPOCH":"2026-04-05T02:30:23.399136","MEAN_MOTION":14.33703773,"ECCENTRICITY":0.00145681,"INCLINATION":74.0388,"RA_OF_ASC_NODE":102.7682,"ARG_OF_PERICENTER":144.9091,"MEAN_ANOMALY":282.4655,"EPHEMERIS_TYPE":0,"CLASSIFICATION_TYPE":"U","NORAD_CAT_ID":33762,"ELEMENT_SET_NO":999,"REV_AT_EPOCH":89672,"BSTAR":5.1798333e-5,"MEAN_MOTION_DOT":1.18e-6,"MEAN_MOTION_DDOT":0},{"OBJECT_NAME":"COSMOS 2251 DEB","OBJECT_ID":"1993-036M","EPOCH":"2026-04-05T07:28:39.902880","MEAN_MOTION":14.39766641,"ECCENTRICITY":0.00218712,"INCLINATION":74.0329,"RA_OF_ASC_NODE":62.896,"ARG_OF_PERICENTER":355.0343,"MEAN_ANOMALY":114.0997,"EPHEMERIS_TYPE":0,"CLASSIFICATION_TYPE":"U","NORAD_CAT_ID":33764,"ELEMENT_SET_NO":999,"REV_AT_EPOCH":89791,"BSTAR":0.00045936446,"MEAN_MOTION_DOT":1.418e-5,"MEAN_MOTION_DDOT":0},{"OBJECT_NAME":"COSMOS 2251 DEB","OBJECT_ID":"1993-036N","EPOCH":"2026-04-05T06:54:10.562400","MEAN_MOTION":15.19036472,"ECCENTRICITY":0.00548409,"INCLINATION":74.0013,"RA_OF_ASC_NODE":296.7658,"ARG_OF_PERICENTER":357.1873,"MEAN_ANOMALY":2.9007,"EPHEMERIS_TYPE":0,"CLASSIFICATION_TYPE":"U","NORAD_CAT_ID":33765,"ELEMENT_SET_NO":999,"REV_AT_EPOCH":91337,"BSTAR":0.0016057941,"MEAN_MOTION_DOT":0.00035137,"MEAN_MOTION_DDOT":0},{"OBJECT_NAME":"COSMOS 2251 DEB","OBJECT_ID":"1993-036P","EPOCH":"2026-04-05T06:57:20.696832","MEAN_MOTION":14.35356584,"ECCENTRICITY":0.00633575,"INCLINATION":74.1852,"RA_OF_ASC_NODE":288.7051,"ARG_OF_PERICENTER":100.3197,"MEAN_ANOMALY":260.5108,"EPHEMERIS_TYPE":0,"CLASSIFICATION_TYPE":"U","NORAD_CAT_ID":33766,"ELEMENT_SET_NO":999,"REV_AT_EPOCH":89374,"BSTAR":0.00081901196,"MEAN_MOTION_DOT":2.38e-5,"MEAN_MOTION_DDOT":0},{"OBJECT_NAME":"COSMOS 2251 DEB","OBJECT_ID":"1993-036R","EPOCH":"2026-04-05T06:10:34.119840","MEAN_MOTION":13.58569332,"ECCENTRICITY":0.03675112,"INCLINATION":74.0701,"RA_OF_ASC_NODE":36.6239,"ARG_OF_PERICENTER":169.5135,"MEAN_ANOMALY":342.6722,"EPHEMERIS_TYPE":0,"CLASSIFICATION_TYPE":"U","NORAD_CAT_ID":33768,"ELEMENT_SET_NO":999,"REV_AT_EPOCH":84837,"BSTAR":0.00034754091,"MEAN_MOTION_DOT":3.74e-6,"MEAN_MOTION_DDOT":0},{"OBJECT_NAME":"COSMOS 2251 DEB","OBJECT_ID":"1993-036U","EPOCH":"2026-04-05T01:18:53.621856","MEAN_MOTION":14.73464402,"ECCENTRICITY":0.00131666,"INCLINATION":74.0437,"RA_OF_ASC_NODE":310.4075,"ARG_OF_PERICENTER":313.256,"MEAN_ANOMALY":199.2205,"EPHEMERIS_TYPE":0,"CLASSIFICATION_TYPE":"U","NORAD_CAT_ID":33779,"ELEMENT_SET_NO":999,"REV_AT_EPOCH":90195,"BSTAR":0.0025193451,"MEAN_MOTION_DOT":0.00016388,"MEAN_MOTION_DDOT":0},{"OBJECT_NAME":"COSMOS 2251 DEB","OBJECT_ID":"1993-036X","EPOCH":"2026-04-05T04:32:25.456128","MEAN_MOTION":14.40778005,"ECCENTRICITY":0.00190164,"INCLINATION":74.032,"RA_OF_ASC_NODE":67.6733,"ARG_OF_PERICENTER":112.8679,"MEAN_ANOMALY":264.8234,"EPHEMERIS_TYPE":0,"CLASSIFICATION_TYPE":"U","NORAD_CAT_ID":33782,"ELEMENT_SET_NO":999,"REV_AT_EPOCH":89760,"BSTAR":0.00055494539,"MEAN_MOTION_DOT":1.753e-5,"MEAN_MOTION_DDOT":0},{"OBJECT_NAME":"COSMOS 2251 DEB","OBJECT_ID":"1993-036AA","EPOCH":"2026-04-05T05:58:08.011776","MEAN_MOTION":14.7343276,"ECCENTRICITY":0.00172591,"INCLINATION":73.8664,"RA_OF_ASC_NODE":196.8599,"ARG_OF_PERICENTER":115.0009,"MEAN_ANOMALY":272.6454,"EPHEMERIS_TYPE":0,"CLASSIFICATION_TYPE":"U","NORAD_CAT_ID":33785,"ELEMENT_SET_NO":999,"REV_AT_EPOCH":90177,"BSTAR":0.0023108004,"MEAN_MOTION_DOT":0.00015029,"MEAN_MOTION_DDOT":0},{"OBJECT_NAME":"COSMOS 2251 DEB","OBJECT_ID":"1993-036AE","EPOCH":"2026-04-05T04:31:44.455008","MEAN_MOTION":13.88985382,"ECCENTRICITY":0.02398854,"INCLINATION":74.0618,"RA_OF_ASC_NODE":254.8338,"ARG_OF_PERICENTER":343.6909,"MEAN_ANOMALY":197.2769,"EPHEMERIS_TYPE":0,"CLASSIFICATION_TYPE":"U","NORAD_CAT_ID":33789,"ELEMENT_SET_NO":999,"REV_AT_EPOCH":86670,"BSTAR":0.00033464225,"MEAN_MOTION_DOT":4.86e-6,"MEAN_MOTION_DDOT":0},{"OBJECT_NAME":"COSMOS 2251 DEB","OBJECT_ID":"1993-036AG","EPOCH":"2026-04-05T06:18:22.813056","MEAN_MOTION":14.43809764,"ECCENTRICITY":0.00295368,"INCLINATION":74.1752,"RA_OF_ASC_NODE":188.405,"ARG_OF_PERICENTER":347.4453,"MEAN_ANOMALY":43.4747,"EPHEMERIS_TYPE":0,"CLASSIFICATION_TYPE":"U","NORAD_CAT_ID":33791,"ELEMENT_SET_NO":999,"REV_AT_EPOCH":89690,"BSTAR":0.00087575605,"MEAN_MOTION_DOT":2.973e-5,"MEAN_MOTION_DDOT":0},{"OBJECT_NAME":"COSMOS 2251 DEB","OBJECT_ID":"1993-036AH","EPOCH":"2026-04-05T07:20:08.986848","MEAN_MOTION":13.46064995,"ECCENTRICITY":0.04302759,"INCLINATION":73.9003,"RA_OF_ASC_NODE":163.9323,"ARG_OF_PERICENTER":208.8387,"MEAN_ANOMALY":218.7298,"EPHEMERIS_TYPE":0,"CLASSIFICATION_TYPE":"U","NORAD_CAT_ID":33792,"ELEMENT_SET_NO":999,"REV_AT_EPOCH":83970,"BSTAR":0.0010352383,"MEAN_MOTION_DOT":1.064e-5,"MEAN_MOTION_DDOT":0}]
